{
  "type": "FeatureCollection",
  "metadata": {
    "region_id": "us-il-springfield",
    "name": "Springfield, IL (example)",
    "country": "US",
    "game_edition": "US",
    "center": [-89.65, 39.8],
    "zoom": 11,
    "subregions": [
      { "id": "downtown", "name": "Downtown", "level": "district", "parent": null, "center": [-89.648, 39.8], "zoom": 13 },
      { "id": "north-side", "name": "North Side", "level": "district", "parent": null, "center": [-89.615, 39.82], "zoom": 13 },
      { "id": "south-side", "name": "South Side", "level": "district", "parent": null, "center": [-89.678, 39.775], "zoom": 13 },
      { "id": "industrial", "name": "Industrial District", "level": "district", "parent": null, "center": [-89.66, 39.76], "zoom": 13 }
    ],
    "generated_by": "human",
    "generated_at": "2026-08-13",
    "schema_version": 2
  },
  "features": [
    {
      "type": "Feature",
      "geometry": { "type": "Point", "coordinates": [-89.6501, 39.8017] },
      "properties": {
        "id": "spfd-station-1",
        "name": "Springfield Fire Station 1",
        "category": "fire",
        "subtype": "career",
        "subregion_id": "downtown",
        "status": "active",
        "agency": { "name": "Springfield Fire Department", "type": "fire_department", "level": "municipal", "parent": null },
        "designation": "Station 1",
        "address": { "street": "100 Center St", "city": "Springfield", "county": "Sangamon", "state": "IL", "postal_code": "62701", "country": "US" },
        "staffing_model": "career",
        "operating_hours": "24_7",
        "units": [
          { "type": "engine", "designation": "Engine 1", "count": 1, "attributes": { "pump_gpm": 1500, "tank_gal": 500 } },
          { "type": "ladder", "designation": "Truck 1", "count": 1, "attributes": { "aerial_ft": 100, "platform": true } },
          { "type": "rescue", "designation": "Rescue 1", "count": 1, "attributes": {} },
          { "type": "battalion", "designation": "Battalion 1", "count": 1, "attributes": {} }
        ],
        "specialties": ["technical_rescue", "hazmat"],
        "attributes": {},
        "game": {
          "building_types": ["Fire Station"],
          "recommended": true,
          "notes": "Downtown first-due HQ house. Mirror with engine + truck + heavy rescue; good early build for structure and technical-rescue missions."
        },
        "significance": "Department headquarters house; hosts the city's only heavy rescue and the HazMat cache.",
        "sources": [
          { "title": "FICTIONAL EXAMPLE — schema fixture", "url": "https://example.com/fixture", "retrieved": "2026-08-13" }
        ],
        "confidence": "high",
        "last_verified": "2026-08-13"
      }
    },
    {
      "type": "Feature",
      "geometry": { "type": "Point", "coordinates": [-89.6789, 39.7752] },
      "properties": {
        "id": "spfd-medic-7",
        "name": "Springfield EMS — Medic Post 7",
        "category": "ems",
        "subtype": "third_service",
        "subregion_id": "south-side",
        "status": "active",
        "agency": { "name": "Springfield EMS", "type": "ems_agency", "level": "municipal", "parent": null },
        "designation": "Medic 7",
        "address": { "street": "740 South Ave", "city": "Springfield", "county": "Sangamon", "state": "IL", "postal_code": "62704", "country": "US" },
        "staffing_model": "career",
        "operating_hours": "24_7",
        "units": [
          { "type": "ems_als", "designation": "Medic 7", "count": 2, "attributes": { "level": "ALS" } }
        ],
        "specialties": [],
        "attributes": {},
        "game": {
          "building_types": ["Rescue Station"],
          "recommended": false,
          "notes": "ALS post covering the south side. Two ambulances handle routine transports to the trauma center."
        },
        "significance": "Busy ALS post serving the south-side residential districts.",
        "sources": [
          { "title": "FICTIONAL EXAMPLE — schema fixture", "url": "https://example.com/fixture", "retrieved": "2026-08-13" }
        ],
        "confidence": "medium",
        "last_verified": "2026-08-13"
      }
    },
    {
      "type": "Feature",
      "geometry": { "type": "Point", "coordinates": [-89.644, 39.799] },
      "properties": {
        "id": "spd-hq",
        "name": "Springfield Police Department — Headquarters",
        "category": "police_local",
        "subtype": "headquarters",
        "subregion_id": "downtown",
        "status": "active",
        "agency": { "name": "Springfield Police Department", "type": "police_department", "level": "municipal", "parent": null },
        "designation": "HQ",
        "address": { "street": "800 Justice Blvd", "city": "Springfield", "county": "Sangamon", "state": "IL", "postal_code": "62701", "country": "US" },
        "staffing_model": "career",
        "operating_hours": "24_7",
        "units": [
          { "type": "patrol", "designation": "Patrol", "count": 20, "attributes": {} },
          { "type": "swat", "designation": "SWAT", "count": 1, "attributes": {} },
          { "type": "k9", "designation": "K9", "count": 3, "attributes": {} }
        ],
        "specialties": ["swat", "k9"],
        "attributes": { "patrol_beats": 8 },
        "game": {
          "building_types": ["Police Station"],
          "recommended": true,
          "notes": "City's SWAT and K9 are based here — build the corresponding specialist expansions to unlock those mission types."
        },
        "significance": "Central police HQ; home of the tactical (SWAT) and K9 units for the whole city.",
        "sources": [
          { "title": "FICTIONAL EXAMPLE — schema fixture", "url": "https://example.com/fixture", "retrieved": "2026-08-13" }
        ],
        "confidence": "high",
        "last_verified": "2026-08-13"
      }
    },
    {
      "type": "Feature",
      "geometry": { "type": "Point", "coordinates": [-89.6123, 39.8201] },
      "properties": {
        "id": "memorial-medical-center",
        "name": "Memorial Medical Center",
        "category": "hospital",
        "subtype": "trauma_center",
        "subregion_id": "north-side",
        "status": "active",
        "agency": { "name": "Memorial Health System", "type": "hospital_system", "level": "private", "parent": null },
        "designation": null,
        "address": { "street": "701 North Rutledge St", "city": "Springfield", "county": "Sangamon", "state": "IL", "postal_code": "62702", "country": "US" },
        "staffing_model": "career",
        "operating_hours": "24_7",
        "units": [],
        "specialties": ["trauma_level_1", "trauma_major", "stroke_center", "cardiac_center", "helipad"],
        "attributes": { "beds": 500, "ed_beds": 40, "trauma_level": 1, "trauma_designation": { "system": "acs", "label": "Level I" }, "helipad": true },
        "game": {
          "building_types": ["Hospital"],
          "recommended": true,
          "notes": "Level 1 trauma center — the destination for your most critical patients. Prioritize building/upgrading to accept all trauma."
        },
        "significance": "Regional Level 1 trauma center with rooftop helipad; primary destination for critical transports.",
        "sources": [
          { "title": "FICTIONAL EXAMPLE — schema fixture", "url": "https://example.com/fixture", "retrieved": "2026-08-13" }
        ],
        "confidence": "high",
        "last_verified": "2026-08-13"
      }
    },
    {
      "type": "Feature",
      "geometry": { "type": "Point", "coordinates": [-89.601, 39.79] },
      "properties": {
        "id": "sangamon-county-jail",
        "name": "Sangamon County Jail",
        "category": "jail",
        "subtype": "county",
        "subregion_id": "downtown",
        "status": "active",
        "agency": { "name": "Sangamon County Sheriff's Office", "type": "sheriff_office", "level": "county", "parent": null },
        "designation": null,
        "address": { "street": "1 Sheriff Plaza", "city": "Springfield", "county": "Sangamon", "state": "IL", "postal_code": "62701", "country": "US" },
        "staffing_model": "career",
        "operating_hours": "24_7",
        "units": [],
        "specialties": ["booking"],
        "attributes": { "inmate_capacity": 320, "security_level": "medium" },
        "game": {
          "building_types": ["Prison"],
          "recommended": false,
          "notes": "County jail — supports prisoner-transport and jail-disturbance missions."
        },
        "significance": "County booking and detention facility co-located with the sheriff's office.",
        "sources": [
          { "title": "FICTIONAL EXAMPLE — schema fixture", "url": "https://example.com/fixture", "retrieved": "2026-08-13" }
        ],
        "confidence": "medium",
        "last_verified": "2026-08-13"
      }
    },
    {
      "type": "Feature",
      "geometry": { "type": "Point", "coordinates": [-89.66, 39.76] },
      "properties": {
        "id": "capital-towing-yard",
        "name": "Capital Towing — Impound Yard",
        "category": "tow",
        "subtype": "heavy",
        "subregion_id": "industrial",
        "status": "active",
        "agency": { "name": "Capital Towing (contractor)", "type": "private", "level": "private", "parent": null },
        "designation": null,
        "address": { "street": "2200 Industrial Dr", "city": "Springfield", "county": "Sangamon", "state": "IL", "postal_code": "62703", "country": "US" },
        "staffing_model": "unknown",
        "operating_hours": "24_7",
        "units": [
          { "type": "tow_heavy", "designation": "Heavy Wrecker", "count": 1, "attributes": {} },
          { "type": "flatbed", "designation": "Flatbed", "count": 2, "attributes": {} }
        ],
        "specialties": [],
        "attributes": {},
        "game": {
          "building_types": ["Tow"],
          "recommended": false,
          "notes": "Contract heavy-recovery yard — covers highway vehicle-recovery missions."
        },
        "significance": "Primary police-contract impound and heavy-recovery yard for the metro highways.",
        "sources": [
          { "title": "FICTIONAL EXAMPLE — schema fixture", "url": "https://example.com/fixture", "retrieved": "2026-08-13" }
        ],
        "confidence": "low",
        "last_verified": "2026-08-13"
      }
    }
  ]
}
